[{"OBJECT_NAME":"CZ-3B DEB","OBJECT_ID":"2011-077X","EPOCH":"2026-02-24T10:16:17.942880","MEAN_MOTION":1.76763413,"ECCENTRICITY":0.75524212,"INCLINATION":22.6594,"RA_OF_ASC_NODE":61.2313,"ARG_OF_PERICENTER":43.9574,"MEAN_ANOMALY":355.797,"EPHEMERIS_TYPE":0,"CLASSIFICATION_TYPE":"U","NORAD_CAT_ID":40842,"ELEMENT_SET_NO":999,"REV_AT_EPOCH":7819,"BSTAR":0.00041758863,"MEAN_MOTION_DOT":-1.02e-6,"MEAN_MOTION_DDOT":0},{"OBJECT_NAME":"CZ-3B DEB","OBJECT_ID":"2011-077AA","EPOCH":"2026-03-06T14:11:28.135968","MEAN_MOTION":2.07482653,"ECCENTRICITY":0.74098149,"INCLINATION":21.4652,"RA_OF_ASC_NODE":170.9395,"ARG_OF_PERICENTER":130.2089,"MEAN_ANOMALY":322.2355,"EPHEMERIS_TYPE":0,"CLASSIFICATION_TYPE":"U","NORAD_CAT_ID":40845,"ELEMENT_SET_NO":999,"REV_AT_EPOCH":9018,"BSTAR":0.0060031437,"MEAN_MOTION_DOT":3.891e-5,"MEAN_MOTION_DDOT":0},{"OBJECT_NAME":"CZ-3B DEB","OBJECT_ID":"2011-077AE","EPOCH":"2026-03-05T00:38:16.647648","MEAN_MOTION":1.90652549,"ECCENTRICITY":0.73964285,"INCLINATION":26.432,"RA_OF_ASC_NODE":12.7975,"ARG_OF_PERICENTER":18.1127,"MEAN_ANOMALY":357.8686,"EPHEMERIS_TYPE":0,"CLASSIFICATION_TYPE":"U","NORAD_CAT_ID":40849,"ELEMENT_SET_NO":999,"REV_AT_EPOCH":8995,"BSTAR":0.008516371,"MEAN_MOTION_DOT":-9.3e-7,"MEAN_MOTION_DDOT":0},{"OBJECT_NAME":"CZ-3B DEB","OBJECT_ID":"2011-077AF","EPOCH":"2026-03-01T20:53:44.675808","MEAN_MOTION":1.92977217,"ECCENTRICITY":0.74834313,"INCLINATION":25.166,"RA_OF_ASC_NODE":273.2856,"ARG_OF_PERICENTER":205.7683,"MEAN_ANOMALY":79.711,"EPHEMERIS_TYPE":0,"CLASSIFICATION_TYPE":"U","NORAD_CAT_ID":40850,"ELEMENT_SET_NO":999,"REV_AT_EPOCH":7722,"BSTAR":0.0035580566,"MEAN_MOTION_DOT":2.7e-6,"MEAN_MOTION_DDOT":0},{"OBJECT_NAME":"CZ-3B DEB","OBJECT_ID":"2011-077AH","EPOCH":"2026-02-26T08:53:12.397632","MEAN_MOTION":1.9069188,"ECCENTRICITY":0.73335514,"INCLINATION":26.885,"RA_OF_ASC_NODE":66.3234,"ARG_OF_PERICENTER":259.4393,"MEAN_ANOMALY":18.1236,"EPHEMERIS_TYPE":0,"CLASSIFICATION_TYPE":"U","NORAD_CAT_ID":40852,"ELEMENT_SET_NO":999,"REV_AT_EPOCH":8424,"BSTAR":0,"MEAN_MOTION_DOT":-4.78e-6,"MEAN_MOTION_DDOT":0},{"OBJECT_NAME":"CZ-3C DEB","OBJECT_ID":"2012-008Y","EPOCH":"2026-03-03T14:31:40.631232","MEAN_MOTION":2.12256086,"ECCENTRICITY":0.72958286,"INCLINATION":17.8372,"RA_OF_ASC_NODE":107.0332,"ARG_OF_PERICENTER":118.4994,"MEAN_ANOMALY":331.2658,"EPHEMERIS_TYPE":0,"CLASSIFICATION_TYPE":"U","NORAD_CAT_ID":40858,"ELEMENT_SET_NO":999,"REV_AT_EPOCH":8697,"BSTAR":7.580489e-6,"MEAN_MOTION_DOT":-8.8e-7,"MEAN_MOTION_DDOT":0},{"OBJECT_NAME":"CZ-3C DEB","OBJECT_ID":"2012-008AD","EPOCH":"2026-03-03T12:09:10.139904","MEAN_MOTION":2.20828854,"ECCENTRICITY":0.70266502,"INCLINATION":20.6982,"RA_OF_ASC_NODE":223.9975,"ARG_OF_PERICENTER":185.5154,"MEAN_ANOMALY":157.7711,"EPHEMERIS_TYPE":0,"CLASSIFICATION_TYPE":"U","NORAD_CAT_ID":40863,"ELEMENT_SET_NO":999,"REV_AT_EPOCH":8990,"BSTAR":0,"MEAN_MOTION_DOT":-1.02e-6,"MEAN_MOTION_DDOT":0},{"OBJECT_NAME":"INTELSAT 34 (IS-34)","OBJECT_ID":"2015-039A","EPOCH":"2026-03-07T03:23:13.541280","MEAN_MOTION":1.00275443,"ECCENTRICITY":1.51e-5,"INCLINATION":0.0149,"RA_OF_ASC_NODE":241.8093,"ARG_OF_PERICENTER":147.9926,"MEAN_ANOMALY":130.3572,"EPHEMERIS_TYPE":0,"CLASSIFICATION_TYPE":"U","NORAD_CAT_ID":40874,"ELEMENT_SET_NO":999,"REV_AT_EPOCH":3860,"BSTAR":0,"MEAN_MOTION_DOT":-2.88e-6,"MEAN_MOTION_DDOT":0},{"OBJECT_NAME":"EUTELSAT 8 WEST B","OBJECT_ID":"2015-039B","EPOCH":"2026-03-07T00:11:16.944864","MEAN_MOTION":1.00271797,"ECCENTRICITY":0.0003808,"INCLINATION":0.0676,"RA_OF_ASC_NODE":2.9314,"ARG_OF_PERICENTER":342.9419,"MEAN_ANOMALY":173.6606,"EPHEMERIS_TYPE":0,"CLASSIFICATION_TYPE":"U","NORAD_CAT_ID":40875,"ELEMENT_SET_NO":999,"REV_AT_EPOCH":3863,"BSTAR":0,"MEAN_MOTION_DOT":-6.8e-7,"MEAN_MOTION_DDOT":0},{"OBJECT_NAME":"GSAT-6","OBJECT_ID":"2015-041A","EPOCH":"2026-03-07T03:39:38.755296","MEAN_MOTION":1.00274467,"ECCENTRICITY":0.0002866,"INCLINATION":1.6549,"RA_OF_ASC_NODE":83.9293,"ARG_OF_PERICENTER":267.2808,"MEAN_ANOMALY":311.0449,"EPHEMERIS_TYPE":0,"CLASSIFICATION_TYPE":"U","NORAD_CAT_ID":40880,"ELEMENT_SET_NO":999,"REV_AT_EPOCH":3857,"BSTAR":0,"MEAN_MOTION_DOT":-1.62e-6,"MEAN_MOTION_DDOT":0},{"OBJECT_NAME":"INMARSAT 5-F3","OBJECT_ID":"2015-042A","EPOCH":"2026-03-07T02:47:31.964352","MEAN_MOTION":1.00271204,"ECCENTRICITY":0.0001472,"INCLINATION":0.0187,"RA_OF_ASC_NODE":143.0227,"ARG_OF_PERICENTER":262.2518,"MEAN_ANOMALY":341.0321,"EPHEMERIS_TYPE":0,"CLASSIFICATION_TYPE":"U","NORAD_CAT_ID":40882,"ELEMENT_SET_NO":999,"REV_AT_EPOCH":3854,"BSTAR":0,"MEAN_MOTION_DOT":4.8e-7,"MEAN_MOTION_DDOT":0},{"OBJECT_NAME":"BREEZE-M R/B","OBJECT_ID":"2015-042B","EPOCH":"2026-03-03T02:48:16.051680","MEAN_MOTION":1.1022636,"ECCENTRICITY":0.79634376,"INCLINATION":27.1374,"RA_OF_ASC_NODE":86.6055,"ARG_OF_PERICENTER":142.1496,"MEAN_ANOMALY":316.6416,"EPHEMERIS_TYPE":0,"CLASSIFICATION_TYPE":"U","NORAD_CAT_ID":40883,"ELEMENT_SET_NO":999,"REV_AT_EPOCH":4233,"BSTAR":0,"MEAN_MOTION_DOT":-9.9e-7,"MEAN_MOTION_DDOT":0},{"OBJECT_NAME":"MUOS-4","OBJECT_ID":"2015-044A","EPOCH":"2026-03-07T03:47:38.703840","MEAN_MOTION":1.00271946,"ECCENTRICITY":0.0058428,"INCLINATION":4.1387,"RA_OF_ASC_NODE":41.5407,"ARG_OF_PERICENTER":358.3662,"MEAN_ANOMALY":256.8326,"EPHEMERIS_TYPE":0,"CLASSIFICATION_TYPE":"U","NORAD_CAT_ID":40887,"ELEMENT_SET_NO":999,"REV_AT_EPOCH":3853,"BSTAR":0,"MEAN_MOTION_DOT":-9.3e-7,"MEAN_MOTION_DDOT":0},{"OBJECT_NAME":"TJS-1","OBJECT_ID":"2015-046A","EPOCH":"2026-03-07T03:29:14.764992","MEAN_MOTION":1.00271146,"ECCENTRICITY":0.0004516,"INCLINATION":0.0605,"RA_OF_ASC_NODE":85.0088,"ARG_OF_PERICENTER":298.3077,"MEAN_ANOMALY":348.8764,"EPHEMERIS_TYPE":0,"CLASSIFICATION_TYPE":"U","NORAD_CAT_ID":40892,"ELEMENT_SET_NO":999,"REV_AT_EPOCH":3854,"BSTAR":0,"MEAN_MOTION_DOT":-1.58e-6,"MEAN_MOTION_DDOT":0},{"OBJECT_NAME":"EXPRESS-AM8","OBJECT_ID":"2015-048A","EPOCH":"2026-03-07T03:34:57.417024","MEAN_MOTION":1.00272182,"ECCENTRICITY":6.6e-6,"INCLINATION":0.0142,"RA_OF_ASC_NODE":229.9345,"ARG_OF_PERICENTER":111.3664,"MEAN_ANOMALY":223.291,"EPHEMERIS_TYPE":0,"CLASSIFICATION_TYPE":"U","NORAD_CAT_ID":40895,"ELEMENT_SET_NO":999,"REV_AT_EPOCH":3832,"BSTAR":0,"MEAN_MOTION_DOT":-1.14e-6,"MEAN_MOTION_DDOT":0},{"OBJECT_NAME":"BLOCK DM-SL R/B","OBJECT_ID":"2015-048B","EPOCH":"2026-03-06T07:06:05.002272","MEAN_MOTION":0.98658794,"ECCENTRICITY":0.0097938,"INCLINATION":8.8406,"RA_OF_ASC_NODE":61.6452,"ARG_OF_PERICENTER":146.0819,"MEAN_ANOMALY":214.6706,"EPHEMERIS_TYPE":0,"CLASSIFICATION_TYPE":"U","NORAD_CAT_ID":40896,"ELEMENT_SET_NO":999,"REV_AT_EPOCH":3776,"BSTAR":0,"MEAN_MOTION_DOT":-2.52e-6,"MEAN_MOTION_DDOT":0},{"OBJECT_NAME":"COSMOS 1700 DEB","OBJECT_ID":"1985-102G","EPOCH":"2026-03-06T13:57:57.994272","MEAN_MOTION":1.00216292,"ECCENTRICITY":0.00216409,"INCLINATION":9.8626,"RA_OF_ASC_NODE":319.4194,"ARG_OF_PERICENTER":119.402,"MEAN_ANOMALY":0.3158,"EPHEMERIS_TYPE":0,"CLASSIFICATION_TYPE":"U","NORAD_CAT_ID":40924,"ELEMENT_SET_NO":999,"REV_AT_EPOCH":6640,"BSTAR":0,"MEAN_MOTION_DOT":-3.0e-8,"MEAN_MOTION_DDOT":0}]
