CZ-3B DEB               
1 40842U 11077X   26055.42798545 -.00000102  00000+0  41759-3 0  9998
2 40842  22.6594  61.2313 7552421  43.9574 355.7970  1.76763413 78191
CZ-3B DEB               
1 40845U 11077AA  26065.59129787  .00003891  00000+0  60031-2 0  9996
2 40845  21.4652 170.9395 7409814 130.2089 322.2355  2.07482653 90180
CZ-3B DEB               
1 40849U 11077AE  26064.02658157 -.00000093  00000+0  85164-2 0  9991
2 40849  26.4320  12.7975 7396428  18.1127 357.8686  1.90652549 89959
CZ-3B DEB               
1 40850U 11077AF  26060.87065597  .00000270  00000+0  35581-2 0  9996
2 40850  25.1660 273.2856 7483431 205.7683  79.7110  1.92977217 77221
CZ-3B DEB               
1 40852U 11077AH  26057.37028238 -.00000478  00000+0  00000+0 0  9996
2 40852  26.8850  66.3234 7333551 259.4393  18.1236  1.90691880 84247
CZ-3C DEB               
1 40858U 12008Y   26062.60533138 -.00000088  00000+0  75805-5 0  9997
2 40858  17.8372 107.0332 7295828 118.4994 331.2658  2.12256086 86978
CZ-3C DEB               
1 40863U 12008AD  26062.50636736 -.00000102  00000+0  00000+0 0  9996
2 40863  20.6982 223.9975 7026650 185.5154 157.7711  2.20828854 89906
INTELSAT 34 (IS-34)     
1 40874U 15039A   26066.14112895 -.00000288  00000+0  00000+0 0  9999
2 40874   0.0149 241.8093 0000151 147.9926 130.3572  1.00275443 38605
EUTELSAT 8 WEST B       
1 40875U 15039B   26066.00783501 -.00000068  00000+0  00000+0 0  9999
2 40875   0.0676   2.9314 0003808 342.9419 173.6606  1.00271797 38638
GSAT-6                  
1 40880U 15041A   26066.15253189 -.00000162  00000+0  00000+0 0  9993
2 40880   1.6549  83.9293 0002866 267.2808 311.0449  1.00274467 38572
INMARSAT 5-F3           
1 40882U 15042A   26066.11634218  .00000048  00000+0  00000+0 0  9990
2 40882   0.0187 143.0227 0001472 262.2518 341.0321  1.00271204 38540
BREEZE-M R/B            
1 40883U 15042B   26062.11685245 -.00000099  00000+0  00000+0 0  9990
2 40883  27.1374  86.6055 7963437 142.1496 316.6416  1.10226360 42335
MUOS-4                  
1 40887U 15044A   26066.15808685 -.00000093  00000+0  00000+0 0  9993
2 40887   4.1387  41.5407 0058428 358.3662 256.8326  1.00271946 38534
TJS-1                   
1 40892U 15046A   26066.14530978 -.00000158  00000+0  00000+0 0  9999
2 40892   0.0605  85.0088 0004516 298.3077 348.8764  1.00271146 38549
EXPRESS-AM8             
1 40895U 15048A   26066.14927566 -.00000114  00000+0  00000+0 0  9999
2 40895   0.0142 229.9345 0000066 111.3664 223.2910  1.00272182 38321
BLOCK DM-SL R/B         
1 40896U 15048B   26065.29589123 -.00000252  00000+0  00000+0 0  9991
2 40896   8.8406  61.6452 0097938 146.0819 214.6706  0.98658794 37769
COSMOS 1700 DEB         
1 40924U 85102G   26065.58192123 -.00000003  00000+0  00000+0 0  9997
2 40924   9.8626 319.4194 0021640 119.4020   0.3158  1.00216292 66409
